#aV2010 12  9  0  0   .00000000      96 DD+AD WGS84 FIT  NGA
## 1613 345600.00000000   900.00000000 55539  .0000000000000
+   32     1  2  3  4  5  6  7  8  9 10 11 12 13 14 15 16 17
+         18 19 20 21 22 23 24 25 26 27 28 29 30 31 32  0  0
+          0  0  0  0  0  0  0  0  0  0  0  0  0  0  0  0  0
+          0  0  0  0  0  0  0  0  0  0  0  0  0  0  0  0  0
+          0  0  0  0  0  0  0  0  0  0  0  0  0  0  0  0  0
++         0  0  0  0  0  0  0  0  0  0  0  0  0  0  0  0  0
++         0  0  0  0  0  0  0  0  0  0  0  0  0  0  0  0  0
++         0  0  0  0  0  0  0  0  0  0  0  0  0  0  0  0  0
++         0  0  0  0  0  0  0  0  0  0  0  0  0  0  0  0  0
++         0  0  0  0  0  0  0  0  0  0  0  0  0  0  0  0  0
%c cc cc ccc ccc cccc cccc cccc cccc ccccc ccccc ccccc ccccc
%c cc cc ccc ccc cccc cccc cccc cccc ccccc ccccc ccccc ccccc
%f  0.0000000  0.000000000  0.00000000000  0.000000000000000
%f  0.0000000  0.000000000  0.00000000000  0.000000000000000
%i    0    0    0    0      0      0      0      0         0
%i    0    0    0    0      0      0      0      0         0
/*      NGA, ST. LOUIS,MO.                                  
/*   EPHEMERIS COMPUTED FROM  3 DAYS OF DATA                
/* CCCCCCCCCCCCCCCCCCCCCCCCCCCCCCCCCCCCCCCCCCCCCCCCCCCCCCCCC
/* CCCCCCCCCCCCCCCCCCCCCCCCCCCCCCCCCCCCCCCCCCCCCCCCCCCCCCCCC
*  2010 12  9  5 30   .00000000                                                 
P  1   5637.298105 -25492.398493   4373.643928   -189.596030                    
V  1   2086.343316   5955.909949  31335.857094      -.034182                    
P  2   7044.328461  19753.930187  16571.813124    307.491566                    
V  2 -18238.086473 -10417.774777  19704.888851       .023660                    
P  3  -2331.909272 -16790.632245 -20788.781449    646.085977                    
V  3  22535.311445 -12382.218568   7949.234364       .052023                    
P  4  -4748.287054  15439.249427  20835.784125    240.130325                    
V  4 -22406.857168 -15196.855752   6448.284429       .097720                    
P  5   3084.109444  25101.445184  -7955.980698    -80.001049                    
V  5  -3845.637751   9778.289346  29511.674583      -.059883                    
P  6   3547.539040 -17739.473249 -19226.192113    396.365971                    
V  6  22950.438559  -9821.686353  13372.099826      -.102427                    
P  7 -20992.713471  -1665.345189 -16303.528607       .176827                    
V  7 -15704.967150 -13417.119702  21389.671890       .004515                    
P  8 -13528.612352   7068.009436 -21797.174938      7.011032                    
V  8 -20871.923689 -17958.526301   6595.494799       .000936                    
P  9  21371.377915  15765.073165  -1240.476833     47.563162                    
V  9  -1951.568375   1220.526774 -32166.787806       .024244                    
P 10  -7400.905876  24542.178589   5966.031617    -59.822855                    
V 10  -2316.206173  -8277.894947  30540.659197      -.009140                    
P 11 -24650.851504 -10385.749689   -518.163261   -109.938522                    
V 11   2071.601285  -4305.375158 -29824.188528      -.029600                    
P 12  11707.482916  13860.844144  19484.234111    -46.526521                    
V 12  -3909.674779  24291.178319 -14807.574721       .034578                    
P 13 -25389.544429   4890.733412   6050.182702    289.660558                    
V 13   6771.772612  -4296.394864  31158.334649      -.011332                    
P 14  18982.658798 -15050.332709  10887.527900    114.060647                    
V 14  13361.227365  -3144.009098 -28181.136057       .032040                    
P 15  16032.848372   7958.210867 -19653.966470   -174.070467                    
V 15 -22104.019105  11692.500873 -13137.129014       .042542                    
P 16   1042.857343 -26127.258425  -3667.036616   -132.859132                    
V 16   3201.272312  -4333.267481  31790.530567      -.031690                    
P 17 -20107.978521  14897.841207   8665.213170    179.274126                    
V 17 -11137.265533   1636.481810 -29254.412500       .007769                    
P 18  15422.917827  -8995.901091 -19254.961467    109.234440                    
V 18  -1359.379367  25314.873792 -13090.174988       .021427                    
P 19 -12994.877394 -10765.607504 -20579.748008    -90.373987                    
V 19  24333.269065  -9400.382024 -10123.335094      -.034722                    
P 20 -14102.871576 -10042.336036  20019.503852     49.167276                    
V 20   3011.743576 -25659.517585 -10607.995081      -.001613                    
P 21  20787.491813    165.663373 -16497.917097   -108.069901                    
V 21  16022.670063  14485.461390  19272.894530      -.027123                    
P 22  11641.263003 -20445.634424 -12067.855291    157.353982                    
V 22   1134.470593  15957.317083 -25675.350467      -.008033                    
P 23 -21441.889393  -2509.099500  15688.869318    339.147044                    
V 23  17492.027642  -9380.436614  22075.320586      -.021302                    
P 24 -20427.041004 -17206.804814   -721.484736    346.085914                    
V 24   2625.698219  -1694.556443 -31277.184724       .034039                    
P 25  15281.236324  -1410.038215  21662.458300    -56.656444                    
V 25  -2180.778513  27454.834930   3315.953781      -.023280                    
P 26   3269.380994  14570.004629 -22513.847135    -68.276448                    
V 26 -25627.410531   8985.755984   2557.905638      -.084947                    
P 27  19122.463994  17352.453757  -6056.354362    215.312886                    
V 27  -8249.374706  -2940.158440 -30774.714434       .036301                    
P 28 -12602.615385  17656.080711 -14630.452742      8.483101                    
V 28    662.998497 -19652.313357 -23771.547193       .017896                    
P 29  24944.671152  -3854.999577   8282.410540    169.221878                    
V 29  -8676.347620   6343.861914  29392.989765       .025713                    
P 30   9930.553092 -21116.753912  12288.801524    303.263155                    
V 30   1485.688595  16385.303118  26071.940105       .032174                    
P 31   1892.369346 -16241.633777  21101.620836     16.805782                    
V 31  21616.719556  14993.694453   9884.474525       .038610                    
P 32  -8583.171395 -18934.870357  17058.500307   -149.220469                    
V 32   5455.592557 -20259.908269 -19730.415003      -.083010                    
EOF
